{
  "links" : {
    "next" : "https://api.nasa.gov/neo/rest/v1/feed?start_date=2012-10-09&end_date=2012-10-09&detailed=true&api_key=t0TVs3DtDT2H8Oy2Zy8m2eVrNsAVKAexjcZXUckd",
    "prev" : "https://api.nasa.gov/neo/rest/v1/feed?start_date=2012-10-07&end_date=2012-10-07&detailed=true&api_key=t0TVs3DtDT2H8Oy2Zy8m2eVrNsAVKAexjcZXUckd",
    "self" : "https://api.nasa.gov/neo/rest/v1/feed?start_date=2012-10-08&end_date=2012-10-08&detailed=true&api_key=t0TVs3DtDT2H8Oy2Zy8m2eVrNsAVKAexjcZXUckd"
  },
  "element_count" : 9,
  "near_earth_objects" : {
    "2012-10-08" : [ {
      "links" : {
        "self" : "https://api.nasa.gov/neo/rest/v1/neo/3610529?api_key=t0TVs3DtDT2H8Oy2Zy8m2eVrNsAVKAexjcZXUckd"
      },
      "neo_reference_id" : "3610529",
      "name" : "(2012 TR139)",
      "nasa_jpl_url" : "http://ssd.jpl.nasa.gov/sbdb.cgi?sstr=3610529",
      "absolute_magnitude_h" : 20.8,
      "estimated_diameter" : {
        "kilometers" : {
          "estimated_diameter_min" : 0.1838886721,
          "estimated_diameter_max" : 0.411187571
        },
        "meters" : {
          "estimated_diameter_min" : 183.8886720703,
          "estimated_diameter_max" : 411.1875710413
        },
        "miles" : {
          "estimated_diameter_min" : 0.1142630881,
          "estimated_diameter_max" : 0.2555000322
        },
        "feet" : {
          "estimated_diameter_min" : 603.309310875,
          "estimated_diameter_max" : 1349.040630575
        }
      },
      "is_potentially_hazardous_asteroid" : false,
      "close_approach_data" : [ {
        "close_approach_date" : "2012-10-08",
        "epoch_date_close_approach" : 1349679600000,
        "relative_velocity" : {
          "kilometers_per_second" : "27.4548371271",
          "kilometers_per_hour" : "98837.4136575348",
          "miles_per_hour" : "61413.7251695943"
        },
        "miss_distance" : {
          "astronomical" : "0.2687757699",
          "lunar" : "104.5537719727",
          "kilometers" : "40208280",
          "miles" : "24984268"
        },
        "orbiting_body" : "Earth"
      } ],
      "orbital_data" : {
        "orbit_id" : "9",
        "orbit_determination_date" : "2017-04-06 08:48:37",
        "orbit_uncertainty" : "8",
        "minimum_orbit_intersection" : ".20337",
        "jupiter_tisserand_invariant" : "3.354",
        "epoch_osculation" : "2456214.5",
        "eccentricity" : ".3859766068045121",
        "semi_major_axis" : "1.952454548965556",
        "inclination" : "52.44441294144833",
        "ascending_node_longitude" : "200.2490224019933",
        "orbital_period" : "996.4828439162367",
        "perihelion_distance" : "1.198852767215797",
        "perihelion_argument" : "173.0106284542244",
        "aphelion_distance" : "2.706056330715316",
        "perihelion_time" : "2456195.217620070301",
        "mean_anomaly" : "6.966157839115942",
        "mean_motion" : ".3612706452478184",
        "equinox" : "J2000"
      }
    }, {
      "links" : {
        "self" : "https://api.nasa.gov/neo/rest/v1/neo/3616702?api_key=t0TVs3DtDT2H8Oy2Zy8m2eVrNsAVKAexjcZXUckd"
      },
      "neo_reference_id" : "3616702",
      "name" : "(2012 VT6)",
      "nasa_jpl_url" : "http://ssd.jpl.nasa.gov/sbdb.cgi?sstr=3616702",
      "absolute_magnitude_h" : 23.1,
      "estimated_diameter" : {
        "kilometers" : {
          "estimated_diameter_min" : 0.063760979,
          "estimated_diameter_max" : 0.1425738833
        },
        "meters" : {
          "estimated_diameter_min" : 63.7609789875,
          "estimated_diameter_max" : 142.5738833281
        },
        "miles" : {
          "estimated_diameter_min" : 0.0396192233,
          "estimated_diameter_max" : 0.0885912765
        },
        "feet" : {
          "estimated_diameter_min" : 209.1895703015,
          "estimated_diameter_max" : 467.7620993781
        }
      },
      "is_potentially_hazardous_asteroid" : false,
      "close_approach_data" : [ {
        "close_approach_date" : "2012-10-08",
        "epoch_date_close_approach" : 1349679600000,
        "relative_velocity" : {
          "kilometers_per_second" : "8.6020999831",
          "kilometers_per_hour" : "30967.559939126",
          "miles_per_hour" : "19242.0374521753"
        },
        "miss_distance" : {
          "astronomical" : "0.0834158215",
          "lunar" : "32.4487533569",
          "kilometers" : "12478829",
          "miles" : "7753985"
        },
        "orbiting_body" : "Earth"
      } ],
      "orbital_data" : {
        "orbit_id" : "7",
        "orbit_determination_date" : "2017-04-06 08:48:09",
        "orbit_uncertainty" : "8",
        "minimum_orbit_intersection" : ".0810818",
        "jupiter_tisserand_invariant" : "4.831",
        "epoch_osculation" : "2456237.5",
        "eccentricity" : ".298239747158279",
        "semi_major_axis" : "1.341765385188853",
        "inclination" : "10.6949298845356",
        "ascending_node_longitude" : "36.40498949921056",
        "orbital_period" : "567.6926907060275",
        "perihelion_distance" : ".9415976159643986",
        "perihelion_argument" : "284.169720791434",
        "aphelion_distance" : "1.741933154413307",
        "perihelion_time" : "2456160.234625425349",
        "mean_anomaly" : "48.99752155040214",
        "mean_motion" : ".6341459136144162",
        "equinox" : "J2000"
      }
    }, {
      "links" : {
        "self" : "https://api.nasa.gov/neo/rest/v1/neo/3729845?api_key=t0TVs3DtDT2H8Oy2Zy8m2eVrNsAVKAexjcZXUckd"
      },
      "neo_reference_id" : "3729845",
      "name" : "(2015 TG145)",
      "nasa_jpl_url" : "http://ssd.jpl.nasa.gov/sbdb.cgi?sstr=3729845",
      "absolute_magnitude_h" : 24.4,
      "estimated_diameter" : {
        "kilometers" : {
          "estimated_diameter_min" : 0.0350392641,
          "estimated_diameter_max" : 0.0783501764
        },
        "meters" : {
          "estimated_diameter_min" : 35.0392641108,
          "estimated_diameter_max" : 78.3501764334
        },
        "miles" : {
          "estimated_diameter_min" : 0.0217723826,
          "estimated_diameter_max" : 0.0486845275
        },
        "feet" : {
          "estimated_diameter_min" : 114.9582192654,
          "estimated_diameter_max" : 257.0543928497
        }
      },
      "is_potentially_hazardous_asteroid" : false,
      "close_approach_data" : [ {
        "close_approach_date" : "2012-10-08",
        "epoch_date_close_approach" : 1349679600000,
        "relative_velocity" : {
          "kilometers_per_second" : "14.4984258745",
          "kilometers_per_hour" : "52194.3331482688",
          "miles_per_hour" : "32431.5288387118"
        },
        "miss_distance" : {
          "astronomical" : "0.1242974819",
          "lunar" : "48.3517227173",
          "kilometers" : "18594640",
          "miles" : "11554173"
        },
        "orbiting_body" : "Earth"
      } ],
      "orbital_data" : {
        "orbit_id" : "5",
        "orbit_determination_date" : "2017-04-06 08:31:25",
        "orbit_uncertainty" : "8",
        "minimum_orbit_intersection" : ".0944527",
        "jupiter_tisserand_invariant" : "4.833",
        "epoch_osculation" : "2457308.5",
        "eccentricity" : ".1888236303613433",
        "semi_major_axis" : "1.314464230175495",
        "inclination" : "27.6573946538556",
        "ascending_node_longitude" : "199.3351456506727",
        "orbital_period" : "550.4547014957431",
        "perihelion_distance" : "1.06626232225363",
        "perihelion_argument" : "146.750783603966",
        "aphelion_distance" : "1.562666138097361",
        "perihelion_time" : "2457274.663362715030",
        "mean_anomaly" : "22.12932215764426",
        "mean_motion" : ".654004769187686",
        "equinox" : "J2000"
      }
    } ]
  }
}